[{"OBJECT_NAME":"STARLINK-5911","OBJECT_ID":"2023-037AN","EPOCH":"2026-03-09T23:23:07.999296","MEAN_MOTION":14.98333079,"ECCENTRICITY":0.00027499,"INCLINATION":69.9979,"RA_OF_ASC_NODE":263.8256,"ARG_OF_PERICENTER":269.9598,"MEAN_ANOMALY":90.1246,"EPHEMERIS_TYPE":0,"CLASSIFICATION_TYPE":"U","NORAD_CAT_ID":55950,"ELEMENT_SET_NO":999,"REV_AT_EPOCH":16451,"BSTAR":4.2189496e-5,"MEAN_MOTION_DOT":4.1e-6,"MEAN_MOTION_DDOT":0},{"OBJECT_NAME":"VELOX-PII","OBJECT_ID":"2013-066Y","EPOCH":"2026-03-09T19:57:03.071520","MEAN_MOTION":14.92474173,"ECCENTRICITY":0.00523549,"INCLINATION":97.8641,"RA_OF_ASC_NODE":20.1898,"ARG_OF_PERICENTER":313.6731,"MEAN_ANOMALY":46.0154,"EPHEMERIS_TYPE":0,"CLASSIFICATION_TYPE":"U","NORAD_CAT_ID":39438,"ELEMENT_SET_NO":999,"REV_AT_EPOCH":66301,"BSTAR":0.00044125176,"MEAN_MOTION_DOT":4.587e-5,"MEAN_MOTION_DDOT":0}]
